NORAD_CAT_ID,OBJECT_NAME,OBJECT_TYPE,EPOCH,MEAN_MOTION,ECCENTRICITY,INCLINATION,RA_OF_ASC_NODE,ARG_OF_PERICENTER,MEAN_ANOMALY,BSTAR,MEAN_MOTION_DOT,MEAN_MOTION_DDOT,TLE_LINE0,TLE_LINE1,TLE_LINE2,SEMIMAJOR_AXIS,PERIOD,APOGEE,PERIGEE,DECAYED
53730.0,STARLINK-4641,PAYLOAD,2024-07-06 02:21:49,15.08840493,0.0001558,53.2167,119.6909,96.3071,263.8099,5.3049e-05,5.56e-06,0.0,0 STARLINK-4641,1 53730U 22107AG  24188.09848874  .00000556  00000-0  53049-4 0  9992,2 53730  53.2167 119.6909 0001558  96.3071 263.8099 15.08840493101623,6917.879,95.438,540.822,538.666,0.0
53730.0,STARLINK-4641,PAYLOAD,2024-07-06 11:54:08,15.08839383,0.0001436,53.2168,117.9083,94.1721,265.9435,-1.2024e-05,-4.79e-06,0.0,0 STARLINK-4641,1 53730U 22107AG  24188.49593014 -.00000479  00000-0 -12024-4 0  9993,2 53730  53.2168 117.9083 0001436  94.1721 265.9435 15.08839383102287,6917.882,95.438,540.741,538.754,0.0
53730.0,STARLINK-4641,PAYLOAD,2024-07-06 18:15:41,15.08832287,0.0001475,53.2172,116.723,90.8957,269.2204,2.901e-05,1.74e-06,0.0,0 STARLINK-4641,1 53730U 22107AG  24188.76089535  .00000174  00000-0  29010-4 0  9994,2 53730  53.2172 116.7230 0001475  90.8957 269.2204 15.08832287101725,6917.904,95.438,540.789,538.749,0.0
53730.0,STARLINK-4641,PAYLOAD,2024-07-07 02:12:37,15.08835965,0.0001446,53.217,115.236,92.2026,267.9132,-7.3796e-06,-4.05e-06,0.0,0 STARLINK-4641,1 53730U 22107AG  24189.09209553 -.00000405  00000-0 -73796-5 0  9995,2 53730  53.2170 115.2360 0001446  92.2026 267.9132 15.08835965102375,6917.893,95.438,540.758,538.757,0.0
53730.0,STARLINK-4641,PAYLOAD,2024-07-07 22:52:37,15.08839986,0.0001414,53.2176,111.3703,97.7559,262.3594,6.681e-05,7.76e-06,0.0,0 STARLINK-4641,1 53730U 22107AG  24189.95321411  .00000776  00000-0  66810-4 0  9995,2 53730  53.2176 111.3703 0001414  97.7559 262.3594 15.08839986101901,6917.88,95.438,540.724,538.767,0.0
53730.0,STARLINK-4641,PAYLOAD,2024-07-08 11:35:42,15.0884021,0.0001427,53.217,108.9924,102.4088,257.7064,7.8083e-05,9.55e-06,0.0,0 STARLINK-4641,1 53730U 22107AG  24190.48313440  .00000955  00000-0  78083-4 0  9992,2 53730  53.2170 108.9924 0001427 102.4088 257.7064 15.08840210102584,6917.88,95.438,540.732,538.758,0.0
53730.0,STARLINK-4641,PAYLOAD,2024-07-08 22:43:24,15.08837752,0.0001287,53.2168,106.9101,95.1262,264.9877,0.00014984,2.097e-05,0.0,0 STARLINK-4641,1 53730U 22107AG  24190.94681563  .00002097  00000-0  14984-3 0  9995,2 53730  53.2168 106.9101 0001287  95.1262 264.9877 15.08837752102659,6917.887,95.438,540.643,538.862,0.0
53730.0,STARLINK-4641,PAYLOAD,2024-07-09 03:29:33,15.08846294,0.0001364,53.217,106.0154,85.0608,275.054,0.00015264,2.143e-05,0.0,0 STARLINK-4641,1 53730U 22107AG  24191.14553001  .00002143  00000-0  15264-3 0  9997,2 53730  53.2170 106.0154 0001364  85.0608 275.0540 15.08846294102087,6917.861,95.437,540.67,538.783,0.0
53730.0,STARLINK-4641,PAYLOAD,2024-07-09 11:26:29,15.08838042,0.0001426,53.2162,104.5313,90.7198,269.3958,2.851e-05,1.66e-06,0.0,0 STARLINK-4641,1 53730U 22107AG  24191.47673505  .00000166  00000-0  28510-4 0  9997,2 53730  53.2162 104.5313 0001426  90.7198 269.3958 15.08838042102131,6917.886,95.438,540.738,538.765,0.0
53730.0,STARLINK-4641,PAYLOAD,2024-07-09 22:34:12,15.08837258,0.0001627,53.2161,102.4477,87.0427,273.0751,-8.2382e-05,-1.599e-05,0.0,0 STARLINK-4641,1 53730U 22107AG  24191.94041739 -.00001599  00000-0 -82382-4 0  9997,2 53730  53.2161 102.4477 0001627  87.0427 273.0751 15.08837258102800,6917.889,95.438,540.879,538.628,0.0
53730.0,STARLINK-4641,PAYLOAD,2024-07-10 11:17:17,15.08841736,0.0001427,53.2172,100.069,86.5974,273.5181,-1.2841e-05,-4.92e-06,0.0,0 STARLINK-4641,1 53730U 22107AG  24192.47033929 -.00000492  00000-0 -12841-4 0  9992,2 53730  53.2172 100.0690 0001427  86.5974 273.5181 15.08841736102888,6917.875,95.437,540.727,538.753,0.0
53730.0,STARLINK-4641,PAYLOAD,2024-07-10 17:38:49,15.08838092,0.0001295,53.2171,98.8794,90.3858,269.7282,7.8721e-05,9.65e-06,0.0,0 STARLINK-4641,1 53730U 22107AG  24192.73529993  .00000965  00000-0  78721-4 0  9994,2 53730  53.2171  98.8794 0001295  90.3858 269.7282 15.08838092102322,6917.886,95.438,540.647,538.855,0.0
53730.0,STARLINK-4641,PAYLOAD,2024-07-10 22:24:59,15.08842126,0.0001277,53.2167,97.9876,90.0962,270.0176,0.00010999,1.463e-05,0.0,0 STARLINK-4641,1 53730U 22107AG  24192.93401649  .00001463  00000-0  10999-3 0  9999,2 53730  53.2167  97.9876 0001277  90.0962 270.0176 15.08842126102950,6917.874,95.437,540.622,538.855,0.0
53730.0,STARLINK-4641,PAYLOAD,2024-07-11 03:11:07,15.08852444,0.0001374,53.217,97.095,98.8075,261.3072,9.0989e-05,1.161e-05,0.0,0 STARLINK-4641,1 53730U 22107AG  24193.13273026  .00001161  00000-0  90989-4 0  9991,2 53730  53.2170  97.0950 0001374  98.8075 261.3072 15.08852444102386,6917.842,95.437,540.658,538.757,0.0
53730.0,STARLINK-4641,PAYLOAD,2024-07-11 15:54:13,15.0884117,0.00017,53.2164,94.7152,108.4221,251.6956,0.00016499,2.339e-05,0.0,0 STARLINK-4641,1 53730U 22107AG  24193.66265700  .00002339  00000-0  16499-3 0  9990,2 53730  53.2164  94.7152 0001700 108.4221 251.6956 15.08841170102467,6917.877,95.437,540.918,538.566,0.0
53730.0,STARLINK-4641,PAYLOAD,2024-07-12 03:01:54,15.08851173,0.0001426,53.2172,92.6324,105.0265,255.0885,0.00016505,2.341e-05,0.0,0 STARLINK-4641,1 53730U 22107AG  24194.12632798  .00002341  00000-0  16505-3 0  9998,2 53730  53.2172  92.6324 0001426 105.0265 255.0885 15.08851173102531,6917.846,95.437,540.698,538.725,0.0
53730.0,STARLINK-4641,PAYLOAD,2024-07-12 20:31:09,15.08844075,0.0001535,53.216,89.363,102.8944,257.2219,9.0895e-05,1.159e-05,0.0,0 STARLINK-4641,1 53730U 22107AG  24194.85497499  .00001159  00000-0  90895-4 0  9996,2 53730  53.2160  89.3630 0001535 102.8944 257.2219 15.08844075102641,6917.868,95.437,540.795,538.671,0.0
53730.0,STARLINK-4641,PAYLOAD,2024-07-12 22:06:32,15.08845294,0.0001515,53.2164,89.0659,99.5226,260.5937,0.00011058,1.473e-05,0.0,0 STARLINK-4641,1 53730U 22107AG  24194.92121466  .00001473  00000-0  11058-3 0  9994,2 53730  53.2164  89.0659 0001515  99.5226 260.5937 15.08845294103252,6917.864,95.437,540.777,538.681,0.0
53730.0,STARLINK-4641,PAYLOAD,2024-07-13 02:52:42,15.08850145,0.0001396,53.2162,88.1721,99.2744,260.8406,0.00014236,1.979e-05,0.0,0 STARLINK-4641,1 53730U 22107AG  24195.11993177  .00001979  00000-0  14236-3 0  9994,2 53730  53.2162  88.1721 0001396  99.2744 260.8406 15.08850145103287,6917.849,95.437,540.68,538.749,0.0
53730.0,STARLINK-4641,PAYLOAD,2024-07-13 20:21:57,15.08840328,0.0001346,53.2157,84.9006,94.6601,265.4544,1.5282e-05,-4.5e-07,0.0,0 STARLINK-4641,1 53730U 22107AG  24195.84857682 -.00000045  00000-0  15282-4 0  9991,2 53730  53.2157  84.9006 0001346  94.6601 265.4544 15.08840328102798,6917.879,95.438,540.676,538.813,0.0
53730.0,STARLINK-4641,PAYLOAD,2024-07-13 21:57:20,15.08840199,0.0001363,53.2162,84.6033,94.5934,265.5214,1.0834e-05,-1.15e-06,0.0,0 STARLINK-4641,1 53730U 22107AG  24195.91481678 -.00000115  00000-0  10834-4 0  9993,2 53730  53.2162  84.6033 0001363  94.5934 265.5214 15.08840199103408,6917.88,95.438,540.688,538.802,0.0
53730.0,STARLINK-4641,PAYLOAD,2024-07-14 09:05:01,15.08846144,0.0001247,53.2161,82.5225,95.9428,264.1706,7.7594e-05,9.47e-06,0.0,0 STARLINK-4641,1 53730U 22107AG  24196.37849242  .00000947  00000-0  77594-4 0  9997,2 53730  53.2161  82.5225 0001247  95.9428 264.1706 15.08846144103475,6917.862,95.437,540.589,538.864,0.0
53730.0,STARLINK-4641,PAYLOAD,2024-07-14 21:48:07,15.08840647,0.0001206,53.2158,80.1486,90.3334,269.7797,0.00011163,1.489e-05,0.0,0 STARLINK-4641,1 53730U 22107AG  24196.90841761  .00001489  00000-0  11163-3 0  9995,2 53730  53.2158  80.1486 0001206  90.3334 269.7797 15.08840647103556,6917.878,95.438,540.578,538.909,0.0
53730.0,STARLINK-4641,PAYLOAD,2024-07-14 23:23:30,15.08846447,0.0001371,53.2164,79.851,99.7549,260.3599,0.00018834,2.711e-05,0.0,0 STARLINK-4641,1 53730U 22107AG  24196.97465868  .00002711  00000-0  18834-3 0  9993,2 53730  53.2164  79.8510 0001371  99.7549 260.3599 15.08846447102965,6917.861,95.437,540.674,538.777,0.0
53730.0,STARLINK-4641,PAYLOAD,2024-07-15 08:55:48,15.0884712,0.0001178,53.2158,78.0636,89.9742,270.1385,0.00013095,1.797e-05,0.0,0 STARLINK-4641,1 53730U 22107AG  24197.37209230  .00001797  00000-0  13095-3 0  9994,2 53730  53.2158  78.0636 0001178  89.9742 270.1385 15.08847120103624,6917.859,95.437,540.539,538.909,0.0
53730.0,STARLINK-4641,PAYLOAD,2024-07-15 21:38:54,15.08832974,0.0001699,53.2181,75.6864,90.7114,269.4072,-6.9213e-05,-1.389e-05,0.0,0 STARLINK-4641,1 53730U 22107AG  24197.90202316 -.00001389  00000-0 -69213-4 0  9994,2 53730  53.2181  75.6864 0001699  90.7114 269.4072 15.08832974103105,6917.902,95.438,540.942,538.592,0.0
53730.0,STARLINK-4641,PAYLOAD,2024-07-15 23:14:17,15.08837834,0.0001296,53.2171,75.3902,101.4923,258.6215,5.7795e-05,6.32e-06,0.0,0 STARLINK-4641,1 53730U 22107AG  24197.96826244  .00000632  00000-0  57795-4 0  9992,2 53730  53.2171  75.3902 0001296 101.4923 258.6215 15.08837834103711,6917.887,95.438,540.649,538.855,0.0
53730.0,STARLINK-4641,PAYLOAD,2024-07-16 19:54:18,15.08843402,0.0001491,53.2171,71.5238,90.5082,269.6081,0.00013745,1.9e-05,0.0,0 STARLINK-4641,1 53730U 22107AG  24198.82937766  .00001900  00000-0  13745-3 0  9995,2 53730  53.2171  71.5238 0001491  90.5082 269.6081 15.08843402103241,6917.87,95.437,540.766,538.704,0.0
53730.0,STARLINK-4641,PAYLOAD,2024-07-16 21:29:41,15.08846987,0.0001229,53.2159,71.225,89.6305,270.4828,0.00013941,1.932e-05,0.0,0 STARLINK-4641,1 53730U 22107AG  24198.89561570  .00001932  00000-0  13941-3 0  9991,2 53730  53.2159  71.2250 0001229  89.6305 270.4828 15.08846987103851,6917.859,95.437,540.574,538.874,0.0
53730.0,STARLINK-4641,PAYLOAD,2024-07-17 00:40:27,15.08848972,0.0001326,53.2164,70.6308,88.473,271.6414,0.00017407,2.484e-05,0.0,0 STARLINK-4641,1 53730U 22107AG  24199.02809445  .00002484  00000-0  17407-3 0  9997,2 53730  53.2164  70.6308 0001326  88.4730 271.6414 15.08848972103873,6917.853,95.437,540.635,538.801,0.0
